[
{
  "SNO": 1,
  "CITY": "Abiramapuram",
  "PINCODE": 600018
},
{
  "SNO": 2,
  "CITY": "Adambakkam",
  "PINCODE": 600088
},
{
  "SNO": 3,
  "CITY": "Adyar",
  "PINCODE": 600020
},
{
  "SNO": 4,
  "CITY": "Agaram",
  "PINCODE": 600082
},
{
  "SNO": 5,
  "CITY": "Alandur",
  "PINCODE": 600016
},
{
  "SNO": 6,
  "CITY": "Alandur North",
  "PINCODE": 600032
},
{
  "SNO": 7,
  "CITY": "Alwar Tirunagar",
  "PINCODE": 600087
},
{
  "SNO": 8,
  "CITY": "Ambattur Bazaar",
  "PINCODE": 600053
},
{
  "SNO": 9,
  "CITY": "Ambattur H O",
  "PINCODE": 600053
},
{
  "SNO": 10,
  "CITY": "Ambattur Industrial Estat",
  "PINCODE": 600058
},
{
  "SNO": 11,
  "CITY": "Ambattur West",
  "PINCODE": 600053
},
{
  "SNO": 12,
  "CITY": "Aminijikarai",
  "PINCODE": 600029
},
{
  "SNO": 13,
  "CITY": "Anakaputhur",
  "PINCODE": 600070
},
{
  "SNO": 14,
  "CITY": "Angappanaicken Street",
  "PINCODE": 600001
},
{
  "SNO": 15,
  "CITY": "Anna Road H O",
  "PINCODE": 600002
},
{
  "SNO": 16,
  "CITY": "Annamalaipuram",
  "PINCODE": 600028
},
{
  "SNO": 17,
  "CITY": "Annanagar",
  "PINCODE": 600040
},
{
  "SNO": 18,
  "CITY": "Annanagar East",
  "PINCODE": 600102
},
{
  "SNO": 19,
  "CITY": "Annanagar Western Extn",
  "PINCODE": 600101
},
{
  "SNO": 20,
  "CITY": "Annaroad Sourth",
  "PINCODE": 600002
},
{
  "SNO": 21,
  "CITY": "Arcot Road",
  "PINCODE": 600024
},
{
  "SNO": 22,
  "CITY": "Arumbakkam",
  "PINCODE": 600106
},
{
  "SNO": 23,
  "CITY": "Ashok Nagar",
  "PINCODE": 600083
},
{
  "SNO": 24,
  "CITY": "Ashtabujam Road",
  "PINCODE": 600112
},
{
  "SNO": 25,
  "CITY": "Avadi",
  "PINCODE": 600054
},
{
  "SNO": 26,
  "CITY": "Avadi Air Force Quarters",
  "PINCODE": 600055
},
{
  "SNO": 27,
  "CITY": "Avadi Camp H O",
  "PINCODE": 600054
},
{
  "SNO": 28,
  "CITY": "Avadi Iaf",
  "PINCODE": 600055
},
{
  "SNO": 29,
  "CITY": "Ayanavaram",
  "PINCODE": 600023
},
{
  "SNO": 30,
  "CITY": "Ayanavaram Rly Colony",
  "PINCODE": 600023
},
{
  "SNO": 31,
  "CITY": "Besant Nagar",
  "PINCODE": 600090
},
{
  "SNO": 32,
  "CITY": "Besantnagat South",
  "PINCODE": 600090
},
{
  "SNO": 33,
  "CITY": "Bharathipuram",
  "PINCODE": 600044
},
{
  "SNO": 34,
  "CITY": "Broadway",
  "PINCODE": 600108
},
{
  "SNO": 35,
  "CITY": "Bullion Market",
  "PINCODE": 600079
},
{
  "SNO": 36,
  "CITY": "Butt Road",
  "PINCODE": 600016
},
{
  "SNO": 37,
  "CITY": "C-In-C Road",
  "PINCODE": 600105
},
{
  "SNO": 38,
  "CITY": "Cathedral",
  "PINCODE": 600006
},
{
  "SNO": 39,
  "CITY": "Cemetry Road",
  "PINCODE": 600021
},
{
  "SNO": 40,
  "CITY": "Central Institute Of Tech",
  "PINCODE": 600020
},
{
  "SNO": 41,
  "CITY": "Central Leather Research",
  "PINCODE": 600020
},
{
  "SNO": 42,
  "CITY": "Central Station",
  "PINCODE": 600003
},
{
  "SNO": 43,
  "CITY": "Central Vehicle Depot",
  "PINCODE": 600055
},
{
  "SNO": 44,
  "CITY": "Central Vehicle Research",
  "PINCODE": 600054
},
{
  "SNO": 45,
  "CITY": "Chamiers Road",
  "PINCODE": 600018
},
{
  "SNO": 46,
  "CITY": "Chepauk",
  "PINCODE": 600005
},
{
  "SNO": 47,
  "CITY": "Chetput H O",
  "PINCODE": 600031
},
{
  "SNO": 48,
  "CITY": "Chinnaiah Mudali Colony",
  "PINCODE": 600011
},
{
  "SNO": 49,
  "CITY": "Chintadripeta",
  "PINCODE": 600002
},
{
  "SNO": 50,
  "CITY": "Chitlapakkam",
  "PINCODE": 600064
},
{
  "SNO": 51,
  "CITY": "Choolai",
  "PINCODE": 600112
},
{
  "SNO": 52,
  "CITY": "Choolaimedu",
  "PINCODE": 600094
},
{
  "SNO": 53,
  "CITY": "Choolaimedu Mdo",
  "PINCODE": 600094
},
{
  "SNO": 54,
  "CITY": "Christian College",
  "PINCODE": 600059
},
{
  "SNO": 55,
  "CITY": "Chromepet",
  "PINCODE": 600044
},
{
  "SNO": 56,
  "CITY": "Crp Camp",
  "PINCODE": 600065
},
{
  "SNO": 57,
  "CITY": "D G Vaishnav College",
  "PINCODE": 600106
},
{
  "SNO": 58,
  "CITY": "Decoster Road",
  "PINCODE": 600012
},
{
  "SNO": 59,
  "CITY": "Defence Officers Colony",
  "PINCODE": 600097
},
{
  "SNO": 60,
  "CITY": "Dr Ambedkarnagar",
  "PINCODE": 600003
},
{
  "SNO": 61,
  "CITY": "Edapalayam",
  "PINCODE": 600003
},
{
  "SNO": 62,
  "CITY": "Egmore",
  "PINCODE": 600008
},
{
  "SNO": 63,
  "CITY": "Egmore High Road",
  "PINCODE": 600008
},
{
  "SNO": 64,
  "CITY": "Ekkaduthangal",
  "PINCODE": 600032
},
{
  "SNO": 65,
  "CITY": "Eldams Road",
  "PINCODE": 600018
},
{
  "SNO": 66,
  "CITY": "Engineering College Directorat",
  "PINCODE": 600025
},
{
  "SNO": 67,
  "CITY": "Ennur R S",
  "PINCODE": 600057
},
{
  "SNO": 68,
  "CITY": "Ennur Thermal Station",
  "PINCODE": 600057
},
{
  "SNO": 69,
  "CITY": "Ernavur",
  "PINCODE": 600057
},
{
  "SNO": 70,
  "CITY": "Flower Bazar",
  "PINCODE": 600001
},
{
  "SNO": 71,
  "CITY": "Flowers Road",
  "PINCODE": 600084
},
{
  "SNO": 72,
  "CITY": "Fore Shore Estate",
  "PINCODE": 600028
},
{
  "SNO": 73,
  "CITY": "Fort St George",
  "PINCODE": 600009
},
{
  "SNO": 74,
  "CITY": "Ganapathipuram",
  "PINCODE": 600059
},
{
  "SNO": 75,
  "CITY": "Gandhi Nagar",
  "PINCODE": 600020
},
{
  "SNO": 76,
  "CITY": "Ganesh Nagar",
  "PINCODE": 600088
},
{
  "SNO": 77,
  "CITY": "Gaugadeeswaran Koil",
  "PINCODE": 600084
},
{
  "SNO": 78,
  "CITY": "Gollawar Agraharam Road",
  "PINCODE": 600021
},
{
  "SNO": 79,
  "CITY": "Gopalapuram",
  "PINCODE": 600086
},
{
  "SNO": 80,
  "CITY": "Goudiyamath Road",
  "PINCODE": 600014
},
{
  "SNO": 81,
  "CITY": "Government Estate",
  "PINCODE": 600002
},
{
  "SNO": 82,
  "CITY": "Govt Stanely Hospital",
  "PINCODE": 600001
},
{
  "SNO": 83,
  "CITY": "Greams Road",
  "PINCODE": 600006
},
{
  "SNO": 84,
  "CITY": "Ground Training School",
  "PINCODE": 600046
},
{
  "SNO": 85,
  "CITY": "Guindy Ind Estate",
  "PINCODE": 600032
},
{
  "SNO": 86,
  "CITY": "Gunidy North",
  "PINCODE": 600015
},
{
  "SNO": 87,
  "CITY": "Habibullah Road",
  "PINCODE": 600017
},
{
  "SNO": 88,
  "CITY": "Harinarayanapuram",
  "PINCODE": 600021
},
{
  "SNO": 89,
  "CITY": "Harrington Road",
  "PINCODE": 600031
},
{
  "SNO": 90,
  "CITY": "High Court Buildings",
  "PINCODE": 600104
},
{
  "SNO": 91,
  "CITY": "Hindi Prachar Sabha",
  "PINCODE": 600017
},
{
  "SNO": 92,
  "CITY": "Hindustan Teleprinters",
  "PINCODE": 600032
},
{
  "SNO": 93,
  "CITY": "I C F Colony",
  "PINCODE": 600038
},
{
  "SNO": 94,
  "CITY": "Indian Inst Of Technology",
  "PINCODE": 600036
},
{
  "SNO": 95,
  "CITY": "Indra Nagar",
  "PINCODE": 600020
},
{
  "SNO": 96,
  "CITY": "Jaffarkhanpet",
  "PINCODE": 600095
},
{
  "SNO": 97,
  "CITY": "Jam Bazaar",
  "PINCODE": 600014
},
{
  "SNO": 98,
  "CITY": "Jawahar Nagar",
  "PINCODE": 600082
},
{
  "SNO": 99,
  "CITY": "K K Nagar",
  "PINCODE": 600078
},
{
  "SNO": 100,
  "CITY": "Kadirvedu",
  "PINCODE": 600066
},
{
  "SNO": 101,
  "CITY": "Kaladipet",
  "PINCODE": 600019
},
{
  "SNO": 102,
  "CITY": "Kalignar Karunanidhinagar",
  "PINCODE": 600078
},
{
  "SNO": 103,
  "CITY": "Kalinga Colony",
  "PINCODE": 600078
},
{
  "SNO": 104,
  "CITY": "Kalmandapam",
  "PINCODE": 600013
},
{
  "SNO": 105,
  "CITY": "Kamarajanagar",
  "PINCODE": 600071
},
{
  "SNO": 106,
  "CITY": "Kasimode",
  "PINCODE": 600013
},
{
  "SNO": 107,
  "CITY": "Kasturbanagar",
  "PINCODE": 600020
},
{
  "SNO": 108,
  "CITY": "Kilpauk",
  "PINCODE": 600010
},
{
  "SNO": 109,
  "CITY": "Kilpauk Garden Colony",
  "PINCODE": 600010
},
{
  "SNO": 110,
  "CITY": "Kilpauk Medical College",
  "PINCODE": 600010
},
{
  "SNO": 111,
  "CITY": "Kilpauk West",
  "PINCODE": 600010
},
{
  "SNO": 112,
  "CITY": "Kodambakkam",
  "PINCODE": 600024
},
{
  "SNO": 113,
  "CITY": "Kodambakkam West",
  "PINCODE": 600024
},
{
  "SNO": 114,
  "CITY": "Kolathur-Cpt",
  "PINCODE": 600099
},
{
  "SNO": 115,
  "CITY": "Korattur",
  "PINCODE": 600080
},
{
  "SNO": 116,
  "CITY": "Korattur R S",
  "PINCODE": 600076
},
{
  "SNO": 117,
  "CITY": "Korukkupet",
  "PINCODE": 600021
},
{
  "SNO": 118,
  "CITY": "Kosapet",
  "PINCODE": 600012
},
{
  "SNO": 119,
  "CITY": "Kothwal Market",
  "PINCODE": 600001
},
{
  "SNO": 120,
  "CITY": "Kottur Gram",
  "PINCODE": 600085
},
{
  "SNO": 121,
  "CITY": "Kottur Madras",
  "PINCODE": 600085
},
{
  "SNO": 122,
  "CITY": "Koyambedu",
  "PINCODE": 600107
},
{
  "SNO": 123,
  "CITY": "Krishnampet",
  "PINCODE": 600005
},
{
  "SNO": 124,
  "CITY": "Kudlyiruppur",
  "PINCODE": 600089
},
{
  "SNO": 125,
  "CITY": "Kumaran Nagar",
  "PINCODE": 600033
},
{
  "SNO": 126,
  "CITY": "Kunnathur Kanchipuram",
  "PINCODE": 600069
},
{
  "SNO": 127,
  "CITY": "Lic Colony Tambaram",
  "PINCODE": 600059
},
{
  "SNO": 128,
  "CITY": "Ligods Estate",
  "PINCODE": 600014
},
{
  "SNO": 129,
  "CITY": "Ligods Road",
  "PINCODE": 600014
},
{
  "SNO": 130,
  "CITY": "Loyla College",
  "PINCODE": 600034
},
{
  "SNO": 131,
  "CITY": "Luz Church Road",
  "PINCODE": 600004
},
{
  "SNO": 132,
  "CITY": "M P T Admn Office",
  "PINCODE": 600001
},
{
  "SNO": 133,
  "CITY": "Madhavaram",
  "PINCODE": 600060
},
{
  "SNO": 134,
  "CITY": "Madhavaram East",
  "PINCODE": 600060
},
{
  "SNO": 135,
  "CITY": "Madhavaram Milk Colony",
  "PINCODE": 600051
},
{
  "SNO": 136,
  "CITY": "Madipakkam",
  "PINCODE": 600091
},
{
  "SNO": 137,
  "CITY": "Madras Air Port",
  "PINCODE": 600027
},
{
  "SNO": 138,
  "CITY": "Madras Electricity System",
  "PINCODE": 600002
},
{
  "SNO": 139,
  "CITY": "Madras Gpo",
  "PINCODE": 600001
},
{
  "SNO": 140,
  "CITY": "Madras Medical College",
  "PINCODE": 600003
},
{
  "SNO": 141,
  "CITY": "Madras Presidency College",
  "PINCODE": 600005
},
{
  "SNO": 142,
  "CITY": "Madras Race Course",
  "PINCODE": 600032
},
{
  "SNO": 143,
  "CITY": "Madras University",
  "PINCODE": 600005
},
{
  "SNO": 144,
  "CITY": "Mambalam East",
  "PINCODE": 600033
},
{
  "SNO": 145,
  "CITY": "Mambalam R S",
  "PINCODE": 600033
},
{
  "SNO": 146,
  "CITY": "Manali Madras",
  "PINCODE": 600068
},
{
  "SNO": 147,
  "CITY": "Manali New Town",
  "PINCODE": 600103
},
{
  "SNO": 148,
  "CITY": "Mandavalli",
  "PINCODE": 600004
},
{
  "SNO": 149,
  "CITY": "Mannady",
  "PINCODE": 600001
},
{
  "SNO": 150,
  "CITY": "Mannurpettai",
  "PINCODE": 600050
},
{
  "SNO": 151,
  "CITY": "Medavakkam Tank Road",
  "PINCODE": 600010
},
{
  "SNO": 152,
  "CITY": "Mednambedu",
  "PINCODE": 600053
},
{
  "SNO": 153,
  "CITY": "Mettupalayam",
  "PINCODE": 600033
},
{
  "SNO": 154,
  "CITY": "Minambakkam",
  "PINCODE": 600027
},
{
  "SNO": 155,
  "CITY": "Mint Buildings",
  "PINCODE": 600001
},
{
  "SNO": 156,
  "CITY": "Monegar Choultry",
  "PINCODE": 600001
},
{
  "SNO": 157,
  "CITY": "Moolakadai",
  "PINCODE": 600060
},
{
  "SNO": 158,
  "CITY": "Mpt Staff Colony",
  "PINCODE": 600081
},
{
  "SNO": 159,
  "CITY": "Ms Accountant General",
  "PINCODE": 600018
},
{
  "SNO": 160,
  "CITY": "Ms Vivekanands College",
  "PINCODE": 600004
},
{
  "SNO": 161,
  "CITY": "Muthialpet",
  "PINCODE": 600001
},
{
  "SNO": 162,
  "CITY": "Mylopore",
  "PINCODE": 600004
},
{
  "SNO": 163,
  "CITY": "Naganallur",
  "PINCODE": 600061
},
{
  "SNO": 164,
  "CITY": "Naganallur South",
  "PINCODE": 600061
},
{
  "SNO": 165,
  "CITY": "Nandanam",
  "PINCODE": 600035
},
{
  "SNO": 166,
  "CITY": "Nandanam Bazaar",
  "PINCODE": 600035
},
{
  "SNO": 167,
  "CITY": "Nanganallur Bazaar",
  "PINCODE": 600061
},
{
  "SNO": 168,
  "CITY": "Negelkeni",
  "PINCODE": 600044
},
{
  "SNO": 169,
  "CITY": "New Avadi Road",
  "PINCODE": 600010
},
{
  "SNO": 170,
  "CITY": "Nochikuppam Colony",
  "PINCODE": 600004
},
{
  "SNO": 171,
  "CITY": "North Thyagarayanagar",
  "PINCODE": 600017
},
{
  "SNO": 172,
  "CITY": "Nungambakkam",
  "PINCODE": 600034
},
{
  "SNO": 173,
  "CITY": "Nungambakkam Bazaar",
  "PINCODE": 600034
},
{
  "SNO": 174,
  "CITY": "Nungambakkam High Road",
  "PINCODE": 600034
},
{
  "SNO": 175,
  "CITY": "Offiers Trg School",
  "PINCODE": 600037
},
{
  "SNO": 176,
  "CITY": "Old College Buildings",
  "PINCODE": 600006
},
{
  "SNO": 177,
  "CITY": "Orgadam",
  "PINCODE": 600053
},
{
  "SNO": 178,
  "CITY": "Padi",
  "PINCODE": 600050
},
{
  "SNO": 179,
  "CITY": "Padi South",
  "PINCODE": 600050
},
{
  "SNO": 180,
  "CITY": "Padianallur",
  "PINCODE": 600052
},
{
  "SNO": 181,
  "CITY": "Pallavaram",
  "PINCODE": 600043
},
{
  "SNO": 182,
  "CITY": "Pallavaram North",
  "PINCODE": 600043
},
{
  "SNO": 183,
  "CITY": "Pallavaram South",
  "PINCODE": 600043
},
{
  "SNO": 184,
  "CITY": "Palvanthangal",
  "PINCODE": 600061
},
{
  "SNO": 185,
  "CITY": "Pammal",
  "PINCODE": 600075
},
{
  "SNO": 186,
  "CITY": "Panagal Park",
  "PINCODE": 600017
},
{
  "SNO": 187,
  "CITY": "Panchiappas College Hoste",
  "PINCODE": 600030
},
{
  "SNO": 188,
  "CITY": "Park Town",
  "PINCODE": 600003
},
{
  "SNO": 189,
  "CITY": "Parthasarathy Koil",
  "PINCODE": 600005
},
{
  "SNO": 190,
  "CITY": "Pattabiram",
  "PINCODE": 600072
},
{
  "SNO": 191,
  "CITY": "Pattabiram East",
  "PINCODE": 600072
},
{
  "SNO": 192,
  "CITY": "Perambur",
  "PINCODE": 600011
},
{
  "SNO": 193,
  "CITY": "Perambur Barracks",
  "PINCODE": 600012
},
{
  "SNO": 194,
  "CITY": "Perambur High Road",
  "PINCODE": 600012
},
{
  "SNO": 195,
  "CITY": "Perambur North",
  "PINCODE": 600011
},
{
  "SNO": 196,
  "CITY": "Perungudi",
  "PINCODE": 600096
},
{
  "SNO": 197,
  "CITY": "Police Head Quarters",
  "PINCODE": 600004
},
{
  "SNO": 198,
  "CITY": "Polichalur",
  "PINCODE": 600074
},
{
  "SNO": 199,
  "CITY": "Ponniammanmedu",
  "PINCODE": 600110
},
{
  "SNO": 200,
  "CITY": "Poonamallee",
  "PINCODE": 600056
},
{
  "SNO": 201,
  "CITY": "Poonamallee East",
  "PINCODE": 600056
},
{
  "SNO": 202,
  "CITY": "Pozhal",
  "PINCODE": 600060
},
{
  "SNO": 203,
  "CITY": "Prithivipakkam",
  "PINCODE": 600053
},
{
  "SNO": 204,
  "CITY": "Pudupakkam",
  "PINCODE": 600014
},
{
  "SNO": 205,
  "CITY": "Pudupet",
  "PINCODE": 600002
},
{
  "SNO": 206,
  "CITY": "Pulianthope",
  "PINCODE": 600012
},
{
  "SNO": 207,
  "CITY": "Purasawakkam",
  "PINCODE": 600084
},
{
  "SNO": 208,
  "CITY": "R A Puram Colony",
  "PINCODE": 600028
},
{
  "SNO": 209,
  "CITY": "Radhanagar",
  "PINCODE": 600044
},
{
  "SNO": 210,
  "CITY": "Railway Car Shed Complex",
  "PINCODE": 600109
},
{
  "SNO": 211,
  "CITY": "Railway Colony",
  "PINCODE": 600059
},
{
  "SNO": 212,
  "CITY": "Raj Bhavan Madras Raja",
  "PINCODE": 600022
},
{
  "SNO": 213,
  "CITY": "Rajah Thottam",
  "PINCODE": 600082
},
{
  "SNO": 214,
  "CITY": "Rajainagar",
  "PINCODE": 600043
},
{
  "SNO": 215,
  "CITY": "Ramakrishnanagar",
  "PINCODE": 600028
},
{
  "SNO": 216,
  "CITY": "Rayapuram Madras",
  "PINCODE": 600013
},
{
  "SNO": 217,
  "CITY": "Rayapuram Market",
  "PINCODE": 600013
},
{
  "SNO": 218,
  "CITY": "Red Hills",
  "PINCODE": 600052
},
{
  "SNO": 219,
  "CITY": "Red Hills Bazaar",
  "PINCODE": 600052
},
{
  "SNO": 220,
  "CITY": "Regional Engg College",
  "PINCODE": 600052
},
{
  "SNO": 221,
  "CITY": "Rengarajapuram",
  "PINCODE": 600024
},
{
  "SNO": 222,
  "CITY": "Ripon Buildings",
  "PINCODE": 600003
},
{
  "SNO": 223,
  "CITY": "Royapettah",
  "PINCODE": 600014
},
{
  "SNO": 224,
  "CITY": "Royapettah High Road",
  "PINCODE": 600004
},
{
  "SNO": 225,
  "CITY": "Saidapet Madras",
  "PINCODE": 600015
},
{
  "SNO": 226,
  "CITY": "Saidapet West",
  "PINCODE": 600015
},
{
  "SNO": 227,
  "CITY": "Saidhapet North",
  "PINCODE": 600015
},
{
  "SNO": 228,
  "CITY": "Saligramam",
  "PINCODE": 600093
},
{
  "SNO": 229,
  "CITY": "Saligramam South",
  "PINCODE": 600093
},
{
  "SNO": 230,
  "CITY": "Santhome",
  "PINCODE": 600004
},
{
  "SNO": 231,
  "CITY": "Sastrinagar",
  "PINCODE": 600020
},
{
  "SNO": 232,
  "CITY": "Sathyamurthinagar",
  "PINCODE": 600062
},
{
  "SNO": 233,
  "CITY": "Selaiyur",
  "PINCODE": 600073
},
{
  "SNO": 234,
  "CITY": "Sembiam",
  "PINCODE": 600011
},
{
  "SNO": 235,
  "CITY": "Sembier Street",
  "PINCODE": 600001
},
{
  "SNO": 236,
  "CITY": "Service Centre",
  "PINCODE": 600031
},
{
  "SNO": 237,
  "CITY": "Seven Wells",
  "PINCODE": 600001
},
{
  "SNO": 238,
  "CITY": "Shanmugapuram",
  "PINCODE": 600019
},
{
  "SNO": 239,
  "CITY": "Shastri Bhavan",
  "PINCODE": 600006
},
{
  "SNO": 240,
  "CITY": "Shenoynagar",
  "PINCODE": 600030
},
{
  "SNO": 241,
  "CITY": "Sidco Estate",
  "PINCODE": 600098
},
{
  "SNO": 242,
  "CITY": "Sithathur",
  "PINCODE": 600074
},
{
  "SNO": 243,
  "CITY": "Solai Street",
  "PINCODE": 600023
},
{
  "SNO": 244,
  "CITY": "Solavaram",
  "PINCODE": 600067
},
{
  "SNO": 245,
  "CITY": "Sowcarpet",
  "PINCODE": 600079
},
{
  "SNO": 246,
  "CITY": "Sri Ayyappanagar",
  "PINCODE": 600111
},
{
  "SNO": 247,
  "CITY": "Srinivasanagar",
  "PINCODE": 600063
},
{
  "SNO": 248,
  "CITY": "St Thomas Mount H O",
  "PINCODE": 600016
},
{
  "SNO": 249,
  "CITY": "Syrahans Road",
  "PINCODE": 600012
},
{
  "SNO": 250,
  "CITY": "Tambaram East",
  "PINCODE": 600059
},
{
  "SNO": 251,
  "CITY": "Tambaram H O",
  "PINCODE": 600045
},
{
  "SNO": 252,
  "CITY": "Tambaram I A F",
  "PINCODE": 600046
},
{
  "SNO": 253,
  "CITY": "Tambaram Sanitorium",
  "PINCODE": 600047
},
{
  "SNO": 254,
  "CITY": "Tambaram West",
  "PINCODE": 600045
},
{
  "SNO": 255,
  "CITY": "Taramani",
  "PINCODE": 600113
},
{
  "SNO": 256,
  "CITY": "Technical Teachers Trg In",
  "PINCODE": 600020
},
{
  "SNO": 257,
  "CITY": "Teynampet",
  "PINCODE": 600018
},
{
  "SNO": 258,
  "CITY": "Teynampet South",
  "PINCODE": 600018
},
{
  "SNO": 259,
  "CITY": "Teynampet West",
  "PINCODE": 600006
},
{
  "SNO": 260,
  "CITY": "Thandarai",
  "PINCODE": 600072
},
{
  "SNO": 261,
  "CITY": "Thayagaranagar H O",
  "PINCODE": 600017
},
{
  "SNO": 262,
  "CITY": "Theosophical Society",
  "PINCODE": 600020
},
{
  "SNO": 263,
  "CITY": "Thillaiganganagar",
  "PINCODE": 600061
},
{
  "SNO": 264,
  "CITY": "Thyagarayanagar South",
  "PINCODE": 600017
},
{
  "SNO": 265,
  "CITY": "Tirumangalam Road",
  "PINCODE": 600049
},
{
  "SNO": 266,
  "CITY": "Tiruvaluvar Nagar",
  "PINCODE": 600016
},
{
  "SNO": 267,
  "CITY": "Tiruvanmiyur",
  "PINCODE": 600041
},
{
  "SNO": 268,
  "CITY": "Tiruvellikeni",
  "PINCODE": 600005
},
{
  "SNO": 269,
  "CITY": "Tiruverkadu",
  "PINCODE": 600077
},
{
  "SNO": 270,
  "CITY": "Tiruvottiur Central",
  "PINCODE": 600019
},
{
  "SNO": 271,
  "CITY": "Tiruvottiyur",
  "PINCODE": 600019
},
{
  "SNO": 272,
  "CITY": "Tiruvottiyur North",
  "PINCODE": 600019
},
{
  "SNO": 273,
  "CITY": "Tiruvottiyur West",
  "PINCODE": 600019
},
{
  "SNO": 274,
  "CITY": "Tondikarpet",
  "PINCODE": 600081
},
{
  "SNO": 275,
  "CITY": "Treaning Institute",
  "PINCODE": 600113
},
{
  "SNO": 276,
  "CITY": "Triplicane South",
  "PINCODE": 600014
},
{
  "SNO": 277,
  "CITY": "Usman Road",
  "PINCODE": 600017
},
{
  "SNO": 278,
  "CITY": "Vadapalani",
  "PINCODE": 600026
},
{
  "SNO": 279,
  "CITY": "Vandalur",
  "PINCODE": 600048
},
{
  "SNO": 280,
  "CITY": "Velacheri",
  "PINCODE": 600042
},
{
  "SNO": 281,
  "CITY": "Venkatesapuram",
  "PINCODE": 600012
},
{
  "SNO": 282,
  "CITY": "Vepery",
  "PINCODE": 600007
},
{
  "SNO": 283,
  "CITY": "Vijayalakshmipuram",
  "PINCODE": 600053
},
{
  "SNO": 284,
  "CITY": "Villivakkam",
  "PINCODE": 600049
},
{
  "SNO": 285,
  "CITY": "Villivakkam North",
  "PINCODE": 600049
},
{
  "SNO": 286,
  "CITY": "Villivakkam South",
  "PINCODE": 600049
},
{
  "SNO": 287,
  "CITY": "Virugambakkam",
  "PINCODE": 600092
},
{
  "SNO": 288,
  "CITY": "Virugambakkam Bazar",
  "PINCODE": 600092
},
{
  "SNO": 289,
  "CITY": "Virugambakkam North",
  "PINCODE": 600092
},
{
  "SNO": 290,
  "CITY": "Vyasarpady",
  "PINCODE": 600039
},
{
  "SNO": 291,
  "CITY": "Vysarnagar Colony",
  "PINCODE": 600039
},
{
  "SNO": 292,
  "CITY": "Vysarpady Coop Ind Estate",
  "PINCODE": 600039
},
{
  "SNO": 293,
  "CITY": "Wal Tax Road",
  "PINCODE": 600001
},
{
  "SNO": 294,
  "CITY": "Washermanpeta East",
  "PINCODE": 600021
},
{
  "SNO": 295,
  "CITY": "Washermanpetta",
  "PINCODE": 600021
},
{
  "SNO": 296,
  "CITY": "West Mambalam",
  "PINCODE": 600033
},
{
  "SNO": 297,
  "CITY": "Wimconagar",
  "PINCODE": 600019
},
{
  "SNO": 298,
  "CITY": "World University",
  "PINCODE": 600031
}
]
